{
    "links": {
        "self": "http://www.neowsapp.com/rest/v1/neo/3787081?api_key=iIulBulltgU6a56xZRHN4H3l9WmuAYTsLGpBGhQ2"
    },
    "id": "3787081",
    "neo_reference_id": "3787081",
    "name": "(2017 UZ)",
    "designation": "2017 UZ",
    "nasa_jpl_url": "http://ssd.jpl.nasa.gov/sbdb.cgi?sstr=3787081",
    "absolute_magnitude_h": 25.9,
    "estimated_diameter": {
        "kilometers": {
            "estimated_diameter_min": 0.0175612318,
            "estimated_diameter_max": 0.0392681082
        },
        "meters": {
            "estimated_diameter_min": 17.561231848,
            "estimated_diameter_max": 39.2681081809
        },
        "miles": {
            "estimated_diameter_min": 0.0109120402,
            "estimated_diameter_max": 0.0244000636
        },
        "feet": {
            "estimated_diameter_min": 57.6155918963,
            "estimated_diameter_max": 128.8323800441
        }
    },
    "is_potentially_hazardous_asteroid": false,
    "close_approach_data": [
        {
            "close_approach_date": "2015-08-29",
            "close_approach_date_full": "2015-Aug-29 09:24",
            "epoch_date_close_approach": 1440840240000,
            "relative_velocity": {
                "kilometers_per_second": "3.8423687432",
                "kilometers_per_hour": "13832.527475361",
                "miles_per_hour": "8594.9946415653"
            },
            "miss_distance": {
                "astronomical": "1.3056166792",
                "lunar": "507.8848882088",
                "kilometers": "195317474.244793304",
                "miles": "121364650.7420794352"
            },
            "orbiting_body": "Juptr"
        },
        {
            "close_approach_date": "2017-10-10",
            "close_approach_date_full": "2017-Oct-10 09:06",
            "epoch_date_close_approach": 1507626360000,
            "relative_velocity": {
                "kilometers_per_second": "13.0833198289",
                "kilometers_per_hour": "47099.9513838856",
                "miles_per_hour": "29266.0781251704"
            },
            "miss_distance": {
                "astronomical": "0.0393884433",
                "lunar": "15.3221044437",
                "kilometers": "5892427.220295771",
                "miles": "3661384.4940367998"
            },
            "orbiting_body": "Earth"
        }
    ],
    "orbital_data": {
        "orbit_id": "3",
        "orbit_determination_date": "2019-04-18 07:27:27",
        "first_observation_date": "2017-10-16",
        "last_observation_date": "2017-10-28",
        "data_arc_in_days": 12,
        "observations_used": 24,
        "orbit_uncertainty": "8",
        "minimum_orbit_intersection": ".0198785",
        "jupiter_tisserand_invariant": "3.133",
        "epoch_osculation": "2458049.5",
        "eccentricity": ".6315259037124602",
        "semi_major_axis": "2.527963010387436",
        "inclination": "5.977350370432593",
        "ascending_node_longitude": "22.793741911675",
        "orbital_period": "1468.096148607754",
        "perihelion_distance": ".9314888857008391",
        "perihelion_argument": "313.4838981452874",
        "aphelion_distance": "4.124437135074033",
        "perihelion_time": "2458007.298188096870",
        "mean_anomaly": "10.34854038649615",
        "mean_motion": ".2452155469118288",
        "equinox": "J2000",
        "orbit_class": {
            "orbit_class_type": "APO",
            "orbit_class_description": "Near-Earth asteroid orbits which cross the Earth’s orbit similar to that of 1862 Apollo",
            "orbit_class_range": "a (semi-major axis) > 1.0 AU; q (perihelion) < 1.017 AU"
        }
    },
    "is_sentry_object": false
}